[{"OBJECT_NAME":"ONEWEB-0316","OBJECT_ID":"2021-075AD","EPOCH":"2026-03-09T20:04:36.388992","MEAN_MOTION":13.18684907,"ECCENTRICITY":0.00016971,"INCLINATION":87.9244,"RA_OF_ASC_NODE":355.1949,"ARG_OF_PERICENTER":81.9274,"MEAN_ANOMALY":278.205,"EPHEMERIS_TYPE":0,"CLASSIFICATION_TYPE":"U","NORAD_CAT_ID":49102,"ELEMENT_SET_NO":999,"REV_AT_EPOCH":22411,"BSTAR":0.00027738065,"MEAN_MOTION_DOT":1.22e-6,"MEAN_MOTION_DDOT":0},{"OBJECT_NAME":"SL-14 DEB","OBJECT_ID":"1991-056CY","EPOCH":"2026-03-08T18:48:48.336192","MEAN_MOTION":13.23680367,"ECCENTRICITY":0.00275951,"INCLINATION":82.5758,"RA_OF_ASC_NODE":199.9582,"ARG_OF_PERICENTER":276.4141,"MEAN_ANOMALY":83.3844,"EPHEMERIS_TYPE":0,"CLASSIFICATION_TYPE":"U","NORAD_CAT_ID":45654,"ELEMENT_SET_NO":999,"REV_AT_EPOCH":29129,"BSTAR":0.0015961845,"MEAN_MOTION_DOT":6.91e-6,"MEAN_MOTION_DDOT":0}]
